{
  "norad_id": 59496,
  "name": "STARLINK-31728",
  "history": [
    {
      "epoch": "2026-03-28T18:25:33.329568",
      "apogee_km": 484.03418130112277,
      "perigee_km": 481.9633533038359,
      "latitude_deg": -41.414098470949405,
      "longitude_deg": -156.6963004800491,
      "semi_major_axis_km": 6861.1357673024795,
      "eccentricity": 0.00015091,
      "inclination_deg": 42.9984,
      "raan_deg": 231.9723,
      "arg_perigee_deg": 265.3121,
      "mean_anomaly_deg": 94.7558,
      "mean_motion_rev_day": 15.27596808
    }
  ]
}